[{"OBJECT_NAME":"ICEYE-X31","OBJECT_ID":"2023-174AJ","EPOCH":"2026-03-09T23:06:20.433600","MEAN_MOTION":15.30950809,"ECCENTRICITY":0.00015021,"INCLINATION":97.3851,"RA_OF_ASC_NODE":144.9524,"ARG_OF_PERICENTER":332.6589,"MEAN_ANOMALY":27.4572,"EPHEMERIS_TYPE":0,"CLASSIFICATION_TYPE":"U","NORAD_CAT_ID":58288,"ELEMENT_SET_NO":999,"REV_AT_EPOCH":12955,"BSTAR":0.00066288467,"MEAN_MOTION_DOT":0.00019777,"MEAN_MOTION_DDOT":0},{"OBJECT_NAME":"STARLINK-32711","OBJECT_ID":"2024-251D","EPOCH":"2026-03-09T22:16:24.437568","MEAN_MOTION":15.3021573,"ECCENTRICITY":0.00022104,"INCLINATION":53.1627,"RA_OF_ASC_NODE":334.2865,"ARG_OF_PERICENTER":41.1116,"MEAN_ANOMALY":319.0051,"EPHEMERIS_TYPE":0,"CLASSIFICATION_TYPE":"U","NORAD_CAT_ID":62435,"ELEMENT_SET_NO":999,"REV_AT_EPOCH":6798,"BSTAR":0.0010903295,"MEAN_MOTION_DOT":0.00032089,"MEAN_MOTION_DDOT":0}]
